STARLINK-2595
1 18407C 21038BG  21326.12169904  .00008583  00000-0  57521-3 0  3264
2 18407  53.0514 183.1892 0002051  75.9748 139.2060 15.06379308    17
